0 IRIDIUM 33 DEB
1 35803U 97051SM  13282.74101006  .00011514  00000-0  29309-2 0  3313
2 35803 086.2489 099.7291 0026134 316.7342 043.1481 14.50370413224116
0 IRIDIUM 33 DEB
1 35803U 97051SM  13282.74102728  .00016731  00000-0  42667-2 0  3313
2 35803 086.2241 099.7500 0029347 317.0145 042.9256 14.50386951224110
0 IRIDIUM 33 DEB
1 35803U 97051SM  13283.77587611  .00027740  00000-0  70691-2 0  3337
2 35803 086.2475 099.2688 0028971 312.0176 047.9052 14.50428906224264
0 IRIDIUM 33 DEB
1 35803U 97051SM  13283.77588522  .00011970  00000-0  30452-2 0  3327
2 35803 086.2502 099.2665 0025724 309.4517 050.5321 14.50400634224269
0 IRIDIUM 33 DEB
1 35803U 97051SM  13285.77654094  .00014794  00000-0  37699-2 0  3346
2 35803 086.2460 098.3743 0011447 307.6424 052.5148 14.50480261224558
0 IRIDIUM 33 DEB
1 35803U 97051SM  13286.74231981  .00015330  00000-0  39049-2 0  3359
2 35803 086.2440 097.9426 0008777 294.2947 065.7888 14.50514064224693
0 IRIDIUM 33 DEB
1 35803U 97051SM  13287.77706411  .00016852  00000-0  42691-2 0  3366
2 35803 086.2509 097.4765 0027898 296.9455 062.8759 14.50557765224845
0 IRIDIUM 33 DEB
1 35803U 97051SM  13289.70855007  .00017588  00000-0  44544-2 0  3374
2 35803 086.2511 096.6117 0023777 285.8111 074.1198 14.50629838225124
0 IRIDIUM 33 DEB
1 35803U 97051SM  13290.74321053  .00027089  00000-0  68645-2 0  3396
2 35803 086.2510 096.1706 0029134 286.8193 073.0304 14.50690307225278
0 IRIDIUM 33 DEB
1 35803U 97051SM  13290.74321890  .00018578  00000-0  46932-2 0  3382
2 35803 086.2599 096.1675 0028164 284.2579 075.6464 14.50677248225276
0 IRIDIUM 33 DEB
1 35803U 97051SM  13291.77784722  .00018785  00000-0  47408-2 0  3393
2 35803 086.2496 095.6846 0028506 281.3550 078.4586 14.50717769225429
0 IRIDIUM 33 DEB
1 35803U 97051SM  13293.15731569  .00020007  00000-0  50405-2 0  3401
2 35803 086.2470 095.0698 0029151 280.7702 079.0253 14.50782317225620
0 IRIDIUM 33 DEB
1 35803U 97051SM  13295.15746212  .00021382  00000-0  53737-2 0  3413
2 35803 086.2489 094.1779 0030033 274.8220 085.0634 14.50876459225913
